SENTINEL-6              
1 46984U 20086A   24095.44988919 -.00000059  00000+0  10140-4 0  9993
2 46984  66.0450   4.4231 0007793 271.3141  88.6981 12.80929418157505
